IRIDIUM 116             
1 43072U 17083C   23292.26976104  .00000536  00000+0  18416-3 0  9994
2 43072  86.4023   8.2126 0002339  96.5362 263.6100 14.34217129304861
IRIDIUM 130             
1 43073U 17083D   23292.30781383  .00000525  00000+0  18049-3 0  9993
2 43073  86.4030   8.3773 0002080  94.3963 265.7471 14.34218653304817
IRIDIUM 151             
1 43074U 17083E   23292.28244419  .00000055  00000+0  12628-4 0  9991
2 43074  86.4025   8.2430 0002379  92.5139 267.6329 14.34215290304836
IRIDIUM 134             
1 43075U 17083F   23292.32050046  .00000331  00000+0  11117-3 0  9996
2 43075  86.4030   8.2219 0002049  95.5270 264.6160 14.34215382304800
IRIDIUM 137             
1 43076U 17083G   23292.26341182  .00000588  00000+0  20300-3 0  9992
2 43076  86.4028   8.3192 0002488  97.8844 262.2634 14.34222183304861
IRIDIUM 141             
1 43077U 17083H   23292.25707104  .00000533  00000+0  18316-3 0  9996
2 43077  86.4024   8.2074 0002149  88.7471 271.3971 14.34213814304861
IRIDIUM 153             
1 43078U 17083J   23292.48831866  .00000527  00000+0  18127-3 0  9998
2 43078  86.3984 336.5825 0002089  84.1175 276.0259 14.34221985306008
IRIDIUM 131             
1 43079U 17083K   23292.31415545  .00000562  00000+0  19362-3 0  9994
2 43079  86.4029   8.3046 0002129  91.1964 268.9475 14.34220264304803
