<?xml version="1.0" encoding="UTF-8"?>
<ndm xmlns:xsi="http://www.w3.org/2001/XMLSchema-instance" xsi:noNamespaceSchemaLocation="https://sanaregistry.org/r/ndmxml_unqualified/ndmxml-2.0.0-master-2.0.xsd">
<omm id="CCSDS_OMM_VERS" version="2.0">
<header><CREATION_DATE/><ORIGINATOR/></header><body><segment><metadata><OBJECT_NAME>IRIDIUM 116</OBJECT_NAME><OBJECT_ID>2017-083C</OBJECT_ID><CENTER_NAME>EARTH</CENTER_NAME><REF_FRAME>TEME</REF_FRAME><TIME_SYSTEM>UTC</TIME_SYSTEM><MEAN_ELEMENT_THEORY>SGP4</MEAN_ELEMENT_THEORY></metadata><data><meanElements><EPOCH>2023-10-19T06:28:27.353856</EPOCH><MEAN_MOTION>14.34217129</MEAN_MOTION><ECCENTRICITY>.0002339</ECCENTRICITY><INCLINATION>86.4023</INCLINATION><RA_OF_ASC_NODE>8.2126</RA_OF_ASC_NODE><ARG_OF_PERICENTER>96.5362</ARG_OF_PERICENTER><MEAN_ANOMALY>263.6100</MEAN_ANOMALY></meanElements><tleParameters><EPHEMERIS_TYPE>0</EPHEMERIS_TYPE><CLASSIFICATION_TYPE>U</CLASSIFICATION_TYPE><NORAD_CAT_ID>43072</NORAD_CAT_ID><ELEMENT_SET_NO>999</ELEMENT_SET_NO><REV_AT_EPOCH>30486</REV_AT_EPOCH><BSTAR>.18416E-3</BSTAR><MEAN_MOTION_DOT>.536E-5</MEAN_MOTION_DOT><MEAN_MOTION_DDOT>0</MEAN_MOTION_DDOT></tleParameters></data></segment></body></omm>
<omm id="CCSDS_OMM_VERS" version="2.0">
<header><CREATION_DATE/><ORIGINATOR/></header><body><segment><metadata><OBJECT_NAME>IRIDIUM 130</OBJECT_NAME><OBJECT_ID>2017-083D</OBJECT_ID><CENTER_NAME>EARTH</CENTER_NAME><REF_FRAME>TEME</REF_FRAME><TIME_SYSTEM>UTC</TIME_SYSTEM><MEAN_ELEMENT_THEORY>SGP4</MEAN_ELEMENT_THEORY></metadata><data><meanElements><EPOCH>2023-10-19T07:23:15.114912</EPOCH><MEAN_MOTION>14.34218653</MEAN_MOTION><ECCENTRICITY>.000208</ECCENTRICITY><INCLINATION>86.4030</INCLINATION><RA_OF_ASC_NODE>8.3773</RA_OF_ASC_NODE><ARG_OF_PERICENTER>94.3963</ARG_OF_PERICENTER><MEAN_ANOMALY>265.7471</MEAN_ANOMALY></meanElements><tleParameters><EPHEMERIS_TYPE>0</EPHEMERIS_TYPE><CLASSIFICATION_TYPE>U</CLASSIFICATION_TYPE><NORAD_CAT_ID>43073</NORAD_CAT_ID><ELEMENT_SET_NO>999</ELEMENT_SET_NO><REV_AT_EPOCH>30481</REV_AT_EPOCH><BSTAR>.18049E-3</BSTAR><MEAN_MOTION_DOT>.525E-5</MEAN_MOTION_DOT><MEAN_MOTION_DDOT>0</MEAN_MOTION_DDOT></tleParameters></data></segment></body></omm>
<omm id="CCSDS_OMM_VERS" version="2.0">
<header><CREATION_DATE/><ORIGINATOR/></header><body><segment><metadata><OBJECT_NAME>IRIDIUM 151</OBJECT_NAME><OBJECT_ID>2017-083E</OBJECT_ID><CENTER_NAME>EARTH</CENTER_NAME><REF_FRAME>TEME</REF_FRAME><TIME_SYSTEM>UTC</TIME_SYSTEM><MEAN_ELEMENT_THEORY>SGP4</MEAN_ELEMENT_THEORY></metadata><data><meanElements><EPOCH>2023-10-19T06:46:43.178016</EPOCH><MEAN_MOTION>14.34215290</MEAN_MOTION><ECCENTRICITY>.0002379</ECCENTRICITY><INCLINATION>86.4025</INCLINATION><RA_OF_ASC_NODE>8.2430</RA_OF_ASC_NODE><ARG_OF_PERICENTER>92.5139</ARG_OF_PERICENTER><MEAN_ANOMALY>267.6329</MEAN_ANOMALY></meanElements><tleParameters><EPHEMERIS_TYPE>0</EPHEMERIS_TYPE><CLASSIFICATION_TYPE>U</CLASSIFICATION_TYPE><NORAD_CAT_ID>43074</NORAD_CAT_ID><ELEMENT_SET_NO>999</ELEMENT_SET_NO><REV_AT_EPOCH>30483</REV_AT_EPOCH><BSTAR>.12628E-4</BSTAR><MEAN_MOTION_DOT>.55E-6</MEAN_MOTION_DOT><MEAN_MOTION_DDOT>0</MEAN_MOTION_DDOT></tleParameters></data></segment></body></omm>
<omm id="CCSDS_OMM_VERS" version="2.0">
<header><CREATION_DATE/><ORIGINATOR/></header><body><segment><metadata><OBJECT_NAME>IRIDIUM 134</OBJECT_NAME><OBJECT_ID>2017-083F</OBJECT_ID><CENTER_NAME>EARTH</CENTER_NAME><REF_FRAME>TEME</REF_FRAME><TIME_SYSTEM>UTC</TIME_SYSTEM><MEAN_ELEMENT_THEORY>SGP4</MEAN_ELEMENT_THEORY></metadata><data><meanElements><EPOCH>2023-10-19T07:41:31.239744</EPOCH><MEAN_MOTION>14.34215382</MEAN_MOTION><ECCENTRICITY>.0002049</ECCENTRICITY><INCLINATION>86.4030</INCLINATION><RA_OF_ASC_NODE>8.2219</RA_OF_ASC_NODE><ARG_OF_PERICENTER>95.5270</ARG_OF_PERICENTER><MEAN_ANOMALY>264.6160</MEAN_ANOMALY></meanElements><tleParameters><EPHEMERIS_TYPE>0</EPHEMERIS_TYPE><CLASSIFICATION_TYPE>U</CLASSIFICATION_TYPE><NORAD_CAT_ID>43075</NORAD_CAT_ID><ELEMENT_SET_NO>999</ELEMENT_SET_NO><REV_AT_EPOCH>30480</REV_AT_EPOCH><BSTAR>.11117E-3</BSTAR><MEAN_MOTION_DOT>.331E-5</MEAN_MOTION_DOT><MEAN_MOTION_DDOT>0</MEAN_MOTION_DDOT></tleParameters></data></segment></body></omm>
<omm id="CCSDS_OMM_VERS" version="2.0">
<header><CREATION_DATE/><ORIGINATOR/></header><body><segment><metadata><OBJECT_NAME>IRIDIUM 137</OBJECT_NAME><OBJECT_ID>2017-083G</OBJECT_ID><CENTER_NAME>EARTH</CENTER_NAME><REF_FRAME>TEME</REF_FRAME><TIME_SYSTEM>UTC</TIME_SYSTEM><MEAN_ELEMENT_THEORY>SGP4</MEAN_ELEMENT_THEORY></metadata><data><meanElements><EPOCH>2023-10-19T06:19:18.781248</EPOCH><MEAN_MOTION>14.34222183</MEAN_MOTION><ECCENTRICITY>.0002488</ECCENTRICITY><INCLINATION>86.4028</INCLINATION><RA_OF_ASC_NODE>8.3192</RA_OF_ASC_NODE><ARG_OF_PERICENTER>97.8844</ARG_OF_PERICENTER><MEAN_ANOMALY>262.2634</MEAN_ANOMALY></meanElements><tleParameters><EPHEMERIS_TYPE>0</EPHEMERIS_TYPE><CLASSIFICATION_TYPE>U</CLASSIFICATION_TYPE><NORAD_CAT_ID>43076</NORAD_CAT_ID><ELEMENT_SET_NO>999</ELEMENT_SET_NO><REV_AT_EPOCH>30486</REV_AT_EPOCH><BSTAR>.203E-3</BSTAR><MEAN_MOTION_DOT>.588E-5</MEAN_MOTION_DOT><MEAN_MOTION_DDOT>0</MEAN_MOTION_DDOT></tleParameters></data></segment></body></omm>
<omm id="CCSDS_OMM_VERS" version="2.0">
<header><CREATION_DATE/><ORIGINATOR/></header><body><segment><metadata><OBJECT_NAME>IRIDIUM 141</OBJECT_NAME><OBJECT_ID>2017-083H</OBJECT_ID><CENTER_NAME>EARTH</CENTER_NAME><REF_FRAME>TEME</REF_FRAME><TIME_SYSTEM>UTC</TIME_SYSTEM><MEAN_ELEMENT_THEORY>SGP4</MEAN_ELEMENT_THEORY></metadata><data><meanElements><EPOCH>2023-10-19T06:10:10.937856</EPOCH><MEAN_MOTION>14.34213814</MEAN_MOTION><ECCENTRICITY>.0002149</ECCENTRICITY><INCLINATION>86.4024</INCLINATION><RA_OF_ASC_NODE>8.2074</RA_OF_ASC_NODE><ARG_OF_PERICENTER>88.7471</ARG_OF_PERICENTER><MEAN_ANOMALY>271.3971</MEAN_ANOMALY></meanElements><tleParameters><EPHEMERIS_TYPE>0</EPHEMERIS_TYPE><CLASSIFICATION_TYPE>U</CLASSIFICATION_TYPE><NORAD_CAT_ID>43077</NORAD_CAT_ID><ELEMENT_SET_NO>999</ELEMENT_SET_NO><REV_AT_EPOCH>30486</REV_AT_EPOCH><BSTAR>.18316E-3</BSTAR><MEAN_MOTION_DOT>.533E-5</MEAN_MOTION_DOT><MEAN_MOTION_DDOT>0</MEAN_MOTION_DDOT></tleParameters></data></segment></body></omm>
<omm id="CCSDS_OMM_VERS" version="2.0">
<header><CREATION_DATE/><ORIGINATOR/></header><body><segment><metadata><OBJECT_NAME>IRIDIUM 153</OBJECT_NAME><OBJECT_ID>2017-083J</OBJECT_ID><CENTER_NAME>EARTH</CENTER_NAME><REF_FRAME>TEME</REF_FRAME><TIME_SYSTEM>UTC</TIME_SYSTEM><MEAN_ELEMENT_THEORY>SGP4</MEAN_ELEMENT_THEORY></metadata><data><meanElements><EPOCH>2023-10-19T11:43:10.732224</EPOCH><MEAN_MOTION>14.34221985</MEAN_MOTION><ECCENTRICITY>.0002089</ECCENTRICITY><INCLINATION>86.3984</INCLINATION><RA_OF_ASC_NODE>336.5825</RA_OF_ASC_NODE><ARG_OF_PERICENTER>84.1175</ARG_OF_PERICENTER><MEAN_ANOMALY>276.0259</MEAN_ANOMALY></meanElements><tleParameters><EPHEMERIS_TYPE>0</EPHEMERIS_TYPE><CLASSIFICATION_TYPE>U</CLASSIFICATION_TYPE><NORAD_CAT_ID>43078</NORAD_CAT_ID><ELEMENT_SET_NO>999</ELEMENT_SET_NO><REV_AT_EPOCH>30600</REV_AT_EPOCH><BSTAR>.18127E-3</BSTAR><MEAN_MOTION_DOT>.527E-5</MEAN_MOTION_DOT><MEAN_MOTION_DDOT>0</MEAN_MOTION_DDOT></tleParameters></data></segment></body></omm>
<omm id="CCSDS_OMM_VERS" version="2.0">
<header><CREATION_DATE/><ORIGINATOR/></header><body><segment><metadata><OBJECT_NAME>IRIDIUM 131</OBJECT_NAME><OBJECT_ID>2017-083K</OBJECT_ID><CENTER_NAME>EARTH</CENTER_NAME><REF_FRAME>TEME</REF_FRAME><TIME_SYSTEM>UTC</TIME_SYSTEM><MEAN_ELEMENT_THEORY>SGP4</MEAN_ELEMENT_THEORY></metadata><data><meanElements><EPOCH>2023-10-19T07:32:23.030880</EPOCH><MEAN_MOTION>14.34220264</MEAN_MOTION><ECCENTRICITY>.0002129</ECCENTRICITY><INCLINATION>86.4029</INCLINATION><RA_OF_ASC_NODE>8.3046</RA_OF_ASC_NODE><ARG_OF_PERICENTER>91.1964</ARG_OF_PERICENTER><MEAN_ANOMALY>268.9475</MEAN_ANOMALY></meanElements><tleParameters><EPHEMERIS_TYPE>0</EPHEMERIS_TYPE><CLASSIFICATION_TYPE>U</CLASSIFICATION_TYPE><NORAD_CAT_ID>43079</NORAD_CAT_ID><ELEMENT_SET_NO>999</ELEMENT_SET_NO><REV_AT_EPOCH>30480</REV_AT_EPOCH><BSTAR>.19362E-3</BSTAR><MEAN_MOTION_DOT>.562E-5</MEAN_MOTION_DOT><MEAN_MOTION_DDOT>0</MEAN_MOTION_DDOT></tleParameters></data></segment></body></omm>

</ndm>
